satname,norad_id,inclination_deg,eccentricity,mean_motion_rev_per_day,perigee_km,apogee_km,l1,l2
STARLINK-1446,45663,53.0246,0.000587,15.40080955,441.8644774333234,449.87586185048167,1 45663U 20035G   26008.18953436  .00018807  00000+0  47162-3 0  9995,2 45663  53.0246 286.1440 0005870  87.0643 273.1032 15.40080955310345
STARLINK-1448,45665,53.0577,0.0001611,15.06385826,546.1393188963457,548.3706801985991,1 45665U 20035J   26008.18551071  .00000840  00000+0  75298-4 0  9996,2 45665  53.0577 338.2308 0001611  99.6216 260.4955 15.06385826309607
STARLINK-1451,45668,53.0556,0.0002326,15.0695066,543.9139346537122,547.1348219268921,1 45668U 20035M   26008.32037729  .00035445  00000+0  23513-2 0  9994,2 45668  53.0556 337.9295 0002326  89.8678 270.2577 15.06950660309631
STARLINK-1452,45669,53.0375,0.0003529,15.35259494,457.73660335603563,462.5630662040239,1 45669U 20035N   26008.51524758  .00059322  00000+0  17054-2 0  9992,2 45669  53.0375 306.2043 0003529 131.6482 228.4822 15.35259494310095
STARLINK-1453,45670,53.0544,0.0006386,15.39927026,441.9668063095769,450.68300905807064,1 45670U 20035P   26008.52040339  .00073477  00000+0  18098-2 0  9999,2 45670  53.0544 300.3056 0006386 104.6439 255.5273 15.39927026310065
STARLINK-1454,45671,53.0564,0.0001386,15.06395599,546.2651912226247,548.184901581888,1 45671U 20035Q   26008.60940672  .00000989  00000+0  85317-4 0  9996,2 45671  53.0564 336.3335 0001386  86.3498 273.7650 15.06395599309666
STARLINK-1456,45673,53.056,0.0005902,15.38186625,447.44085238951357,455.5025224841638,1 45673U 20035S   26008.61290757  .00119159  00000+0  30822-2 0  9990,2 45673  53.0560 331.9869 0005902  81.9512 278.2160 15.38186625309741
STARLINK-1457,45674,53.0522,0.0014178,15.54963769,392.64470649973373,411.87119442125913,1 45674U 20035T   26008.66671296  .00035647  00000+0  52559-3 0  9998,2 45674  53.0522 318.5464 0014178  70.5338  50.9711 15.54963769  5860
STARLINK-1458,45675,53.056,0.0001505,15.06419455,546.1096758227941,548.1941877912677,1 45675U 20035U   26008.62043722  .00007393  00000+0  51442-3 0  9999,2 45675  53.0560 336.2770 0001505  69.8378 290.2773 15.06419455309640
STARLINK-1460,45676,53.0556,0.0001383,15.06392287,546.277418298384,548.1929762481495,1 45676U 20035V   26008.19288384 -.00000717  00000+0 -29265-4 0  9991,2 45676  53.0556 338.1988 0001383  93.6553 266.4594 15.06392287309573
STARLINK-1392,45677,53.0545,0.0001557,15.06399539,546.1346938467823,548.2912478277012,1 45677U 20035W   26008.60201751  .00001512  00000+0  12038-3 0  9992,2 45677  53.0545 336.3644 0001557  98.1161 262.0005 15.06399539309676
STARLINK-1394,45679,53.0553,0.0004538,15.38943049,446.13530909995825,452.3318306291667,1 45679U 20035Y   26008.59142333  .00105942  00000+0  26799-2 0  9992,2 45679  53.0553 322.1141 0004538  91.2774 268.8749 15.38943049309875
STARLINK-1402,45685,53.0538,0.0009707,15.35395563,453.1082833101718,466.38334900946484,1 45685U 20035AE  26008.55760949  .00060303  00000+0  17237-2 0  9992,2 45685  53.0538 307.5967 0009707  63.6063 296.5934 15.35395563310083
STARLINK-1404,45686,53.0554,0.0001309,15.06397415,546.3129514389866,548.1260097656095,1 45686U 20035AF  26008.29332509  .00002934  00000+0  21579-3 0  9992,2 45686  53.0554 327.7506 0001309  85.4420 274.6719 15.06397415309772
STARLINK-1413,45689,53.0562,0.0001428,15.06402994,546.2134433109741,548.1913202384094,1 45689U 20035AJ  26008.57715971  .00004878  00000+0  34608-3 0  9990,2 45689  53.0562 326.4734 0001428  94.7459 265.3693 15.06402994309722
STARLINK-1417,45693,53.0534,0.0006438,15.09266656,533.9866874845375,542.8924714882833,1 45693U 20035AN  26008.59494123  .00033893  00000+0  21117-2 0  9999,2 45693  53.0534 325.9232 0006438  64.9657 295.2002 15.09266656309810
STARLINK-1420,45695,53.0566,0.0001502,15.06437148,546.0575367552219,548.137877261207,1 45695U 20035AQ  26008.10992404  .00017240  00000+0  11723-2 0  9993,2 45695  53.0566 308.5641 0001502  91.2581 268.8580 15.06437148310029
STARLINK-1422,45696,53.0548,0.0001437,15.06416741,546.1650844448159,548.1554148743671,1 45696U 20035AR  26008.58451207 -.00001738  00000+0 -97793-4 0  9997,2 45696  53.0548 326.4425 0001437  91.9685 268.1468 15.06416741309806
STARLINK-1351,45697,53.0548,0.0001934,15.1253247,527.1442126619386,529.8156920991187,1 45697U 20035AS  26008.66671296  .00096334  00000+0  54086-2 0  9999,2 45697  53.0548 305.6241 0001934  97.5799 352.0222 15.12532470  5801
STARLINK-1398,45699,53.0437,0.0006974,15.67267645,362.02104349262663,371.4287768849572,1 45699U 20035AU  26008.66671296  .00171298  00000+0  15343-2 0  9997,2 45699  53.0437 240.2409 0006974 118.7757 284.4579 15.67267645  5890
STARLINK-1400,45700,53.0548,0.0001627,15.06395479,546.098657722001,548.3521706515767,1 45700U 20035AV  26008.20302092 -.00000838  00000+0 -37396-4 0  9992,2 45700  53.0548 308.1529 0001627  98.2934 261.8239 15.06395479310039
STARLINK-1403,45701,53.0534,0.0001227,15.06395415,546.3758683462702,548.0753523308467,1 45701U 20035AW  26008.23250332  .00004057  00000+0  29112-3 0  9996,2 45701  53.0534 308.0219 0001227  89.7621 270.3509 15.06395415310039
STARLINK-1407,45703,53.0387,0.0004448,15.48632078,417.70265884392575,423.7509280745862,1 45703U 20035AY  26008.38572958  .00099945  00000+0  18243-2 0  9997,2 45703  53.0387 247.1063 0004448 259.1364 100.9142 15.48632078310915
STARLINK-1411,45706,53.0482,0.0002731,15.52046088,408.898856985772,412.60694865069127,1 45706U 20035BB  26008.14773787  .00055825  00000+0  91159-3 0  9994,2 45706  53.0482 274.8665 0002731 140.7292 219.3915 15.52046088310498
STARLINK-1423,45710,53.057,0.0001322,15.07168023,543.9434576623889,545.7738977195695,1 45710U 20035BF  26008.52290826  .00100110  00000+0  65085-2 0  9995,2 45710  53.0570 306.7091 0001322 101.8840 258.2298 15.07168023310086
STARLINK-1433,45711,53.0552,0.000189,15.06878176,544.4377909670338,547.055018894097,1 45711U 20035BG  26008.43859688  .00099881  00000+0  65450-2 0  9991,2 45711  53.0552 307.0961 0001890 120.9035 239.2140 15.06878176310064
STARLINK-1434,45712,53.0508,0.0003571,15.20301189,502.47344369364055,507.3893311359325,1 45712U 20035BH  26008.21130460  .00010448  00000+0  48885-3 0  9994,2 45712  53.0508 298.7478 0003571  48.1747 311.9552 15.20301189310172
STARLINK-1465,45731,53.0546,0.0001462,15.0725481,543.5808235392624,545.6050297698166,1 45731U 20038B   26008.67025862  .00110353  00000+0  71454-2 0  9990,2 45731  53.0546 146.0455 0001462 104.8357 255.2794 15.07254810307143
STARLINK-1471,45735,53.0501,0.0002274,15.4444826,431.450881046384,434.5485860327981,1 45735U 20038F   26008.48524648  .00022885  00000+0  49432-3 0  9993,2 45735  53.0501  69.4656 0002274  59.2042 300.9187 15.44448260308213
STARLINK-1474,45738,53.0304,0.0005256,15.83655418,316.59283060415873,323.63403145725897,1 45738U 20038J   26008.66671296  .00154367  00000+0  67723-3 0  9992,2 45738  53.0304   9.8772 0005256  78.7610 329.7705 15.83655418  6010
STARLINK-1480,45741,53.0544,0.0002529,15.37811923,450.8535517217251,454.3085289065157,1 45741U 20038M   26008.62608270  .00116641  00000+0  30563-2 0  9998,2 45741  53.0544 142.4617 0002529 358.2675   1.8318 15.37811923307206
STARLINK-1500,45744,53.0376,0.0002881,15.31387224,469.6990927709394,473.64595301803,1 45744U 20038Q   26008.56946711  .00028766  00000+0  94416-3 0  9997,2 45744  53.0376 114.0125 0002881  62.4975 297.6317 15.31387224307591
STARLINK-1504,45746,53.0256,0.0003018,15.48474333,419.1364882988728,423.24056118560657,1 45746U 20038S   26008.43864097  .00032895  00000+0  61457-3 0  9998,2 45746  53.0256  71.9216 0003018  25.6630 334.4526 15.48474333308166
STARLINK-1506,45747,53.0792,0.0003817,15.23944388,491.33398479788775,496.58014140565956,1 45747U 20038T   26008.56869047  .00010510  00000+0  44212-3 0  9993,2 45747  53.0792 120.0133 0003817  76.1671 283.9751 15.23944388307510
STARLINK-1464,45751,53.0538,9.3e-05,15.07091271,544.4498612839498,545.7375821981932,1 45751U 20038X   26008.58773813  .00147798  00000+0  95553-2 0  9997,2 45751  53.0538 126.4210 0000930  80.5356 279.5738 15.07091271307423
STARLINK-1477,45754,53.0516,0.0003163,15.10792913,531.5943067091112,535.9667857488548,1 45754U 20038AA  26008.63322243  .00040156  00000+0  23946-2 0  9990,2 45754  53.0516 125.1391 0003163 178.6651 181.4349 15.10792913307442
STARLINK-1478,45755,53.0588,0.0001109,15.2945046,476.69368964469595,478.21425972288034,1 45755U 20038AB  26008.66671296  .01008181  00000+0  32039-1 0  9994,2 45755  53.0588 124.9968 0001109  74.1606   5.3970 15.29450460  5646
STARLINK-1484,45756,53.0108,0.0004576,15.75778561,339.3412825539808,345.491933215917,1 45756U 20038AC  26008.22306969  .00123247  00000+0  77749-3 0  9998,2 45756  53.0108   3.1016 0004576  68.2957 291.8548 15.75778561309108
STARLINK-1493,45759,53.0572,0.0001437,15.06401596,546.211494547596,548.2018383173281,1 45759U 20038AF  26008.61032358 -.00002270  00000+0 -13351-3 0  9995,2 45759  53.0572 126.3249 0001437  91.9405 268.1748 15.06401596307412
STARLINK-1494,45760,53.0523,0.0001477,15.58626184,390.6323067283529,392.6320965505174,1 45760U 20038AG  26008.51724874  .00105684  00000+0  13413-2 0  9996,2 45760  53.0523  88.2232 0001477 157.6655 202.4421 15.58626184307956
STARLINK-1502,45764,53.0537,0.0001378,15.06434126,546.1526700189143,548.0612672566713,1 45764U 20038AL  26008.64348189  .00011685  00000+0  80132-3 0  9995,2 45764  53.0537 126.1766 0001378 115.6971 244.4161 15.06434126307430
STARLINK-1470,45772,53.0462,0.0002318,15.23226981,494.5211807927044,497.7080838494485,1 45772U 20038AU  26008.52492668  .00021535  00000+0  90931-3 0  9996,2 45772  53.0462  92.4432 0002318 137.5630 222.5546 15.23226981307892
STARLINK-1482,45773,53.0546,0.0001416,15.06407833,546.2069250690383,548.1681769818888,1 45773U 20038AV  26008.54212331  .00002705  00000+0  20041-3 0  9999,2 45773  53.0546 106.6313 0001416  91.1845 268.9307 15.06407833307698
